[{"OBJECT_NAME":"STARLINK-3515","OBJECT_ID":"2022-016AA","EPOCH":"2026-03-09T21:39:24.578784","MEAN_MOTION":15.08834677,"ECCENTRICITY":0.00013974,"INCLINATION":53.2185,"RA_OF_ASC_NODE":318.1644,"ARG_OF_PERICENTER":101.8565,"MEAN_ANOMALY":258.2585,"EPHEMERIS_TYPE":0,"CLASSIFICATION_TYPE":"U","NORAD_CAT_ID":51738,"ELEMENT_SET_NO":999,"REV_AT_EPOCH":22359,"BSTAR":-1.7675508e-5,"MEAN_MOTION_DOT":-5.69e-6,"MEAN_MOTION_DDOT":0},{"OBJECT_NAME":"COSMOS 2535 DEB","OBJECT_ID":"2019-039H","EPOCH":"2026-03-09T01:37:49.505376","MEAN_MOTION":15.12536261,"ECCENTRICITY":0.00199509,"INCLINATION":97.5365,"RA_OF_ASC_NODE":108.6978,"ARG_OF_PERICENTER":50.248,"MEAN_ANOMALY":310.0505,"EPHEMERIS_TYPE":0,"CLASSIFICATION_TYPE":"U","NORAD_CAT_ID":44631,"ELEMENT_SET_NO":999,"REV_AT_EPOCH":34980,"BSTAR":0.00071319108,"MEAN_MOTION_DOT":0.00012434,"MEAN_MOTION_DDOT":0}]
